[{"OBJECT_NAME":"SPIP","OBJECT_ID":"2023-174AU","EPOCH":"2026-03-09T22:52:46.383168","MEAN_MOTION":15.26695413,"ECCENTRICITY":0.00100427,"INCLINATION":97.3901,"RA_OF_ASC_NODE":146.4534,"ARG_OF_PERICENTER":168.1112,"MEAN_ANOMALY":192.0366,"EPHEMERIS_TYPE":0,"CLASSIFICATION_TYPE":"U","NORAD_CAT_ID":58298,"ELEMENT_SET_NO":999,"REV_AT_EPOCH":12963,"BSTAR":0.00025731582,"MEAN_MOTION_DOT":6.692e-5,"MEAN_MOTION_DDOT":0},{"OBJECT_NAME":"STARLINK-36522","OBJECT_ID":"2026-008S","EPOCH":"2026-03-09T10:30:29.180736","MEAN_MOTION":15.27623629,"ECCENTRICITY":0.00029915,"INCLINATION":43.0018,"RA_OF_ASC_NODE":206.658,"ARG_OF_PERICENTER":301.8818,"MEAN_ANOMALY":58.1742,"EPHEMERIS_TYPE":0,"CLASSIFICATION_TYPE":"U","NORAD_CAT_ID":67461,"ELEMENT_SET_NO":999,"REV_AT_EPOCH":953,"BSTAR":0.0012883897,"MEAN_MOTION_DOT":0.00035412,"MEAN_MOTION_DDOT":0}]
